{
    "links": {
        "self": "http://www.neowsapp.com/rest/v1/neo/54051371?api_key=iIulBulltgU6a56xZRHN4H3l9WmuAYTsLGpBGhQ2"
    },
    "id": "54051371",
    "neo_reference_id": "54051371",
    "name": "(2020 QV4)",
    "designation": "2020 QV4",
    "nasa_jpl_url": "http://ssd.jpl.nasa.gov/sbdb.cgi?sstr=54051371",
    "absolute_magnitude_h": 25.217,
    "estimated_diameter": {
        "kilometers": {
            "estimated_diameter_min": 0.0240522094,
            "estimated_diameter_max": 0.0537823753
        },
        "meters": {
            "estimated_diameter_min": 24.0522094234,
            "estimated_diameter_max": 53.7823752798
        },
        "miles": {
            "estimated_diameter_min": 0.0149453454,
            "estimated_diameter_max": 0.0334188083
        },
        "feet": {
            "estimated_diameter_min": 78.9114507647,
            "estimated_diameter_max": 176.451368113
        }
    },
    "is_potentially_hazardous_asteroid": false,
    "close_approach_data": [
        {
            "close_approach_date": "1908-04-02",
            "close_approach_date_full": "1908-Apr-02 02:01",
            "epoch_date_close_approach": -1948658340000,
            "relative_velocity": {
                "kilometers_per_second": "12.8062114808",
                "kilometers_per_hour": "46102.3613307036",
                "miles_per_hour": "28646.2144612919"
            },
            "miss_distance": {
                "astronomical": "0.0675395257",
                "lunar": "26.2728754973",
                "kilometers": "10103769.185530259",
                "miles": "6278191.0483012142"
            },
            "orbiting_body": "Mars"
        },
        {
            "close_approach_date": "1910-01-08",
            "close_approach_date_full": "1910-Jan-08 10:07",
            "epoch_date_close_approach": -1892814780000,
            "relative_velocity": {
                "kilometers_per_second": "3.7690515074",
                "kilometers_per_hour": "13568.5854267782",
                "miles_per_hour": "8430.991316989"
            },
            "miss_distance": {
                "astronomical": "1.4968460393",
                "lunar": "582.2731092877",
                "kilometers": "223924979.197216291",
                "miles": "139140530.0410391758"
            },
            "orbiting_body": "Juptr"
        },
        {
            "close_approach_date": "2020-09-11",
            "close_approach_date_full": "2020-Sep-11 00:57",
            "epoch_date_close_approach": 1599785820000,
            "relative_velocity": {
                "kilometers_per_second": "7.2188472206",
                "kilometers_per_hour": "25987.8499941486",
                "miles_per_hour": "16147.839347753"
            },
            "miss_distance": {
                "astronomical": "0.0610411606",
                "lunar": "23.7450114734",
                "kilometers": "9131627.608087922",
                "miles": "5674130.2827484436"
            },
            "orbiting_body": "Earth"
        },
        {
            "close_approach_date": "2051-12-21",
            "close_approach_date_full": "2051-Dec-21 05:36",
            "epoch_date_close_approach": 2586749760000,
            "relative_velocity": {
                "kilometers_per_second": "3.4213692207",
                "kilometers_per_hour": "12316.9291945927",
                "miles_per_hour": "7653.260809829"
            },
            "miss_distance": {
                "astronomical": "1.3587715131",
                "lunar": "528.5621185959",
                "kilometers": "203269324.176437097",
                "miles": "126305701.1700500586"
            },
            "orbiting_body": "Juptr"
        },
        {
            "close_approach_date": "2064-05-30",
            "close_approach_date_full": "2064-May-30 10:28",
            "epoch_date_close_approach": 2979368880000,
            "relative_velocity": {
                "kilometers_per_second": "3.9915439864",
                "kilometers_per_hour": "14369.5583509296",
                "miles_per_hour": "8928.6847431095"
            },
            "miss_distance": {
                "astronomical": "1.6079244379",
                "lunar": "625.4826063431",
                "kilometers": "240542071.030787273",
                "miles": "149465912.1120914474"
            },
            "orbiting_body": "Juptr"
        }
    ],
    "orbital_data": {
        "orbit_id": "4",
        "orbit_determination_date": "2020-09-18 07:32:53",
        "first_observation_date": "2020-08-10",
        "last_observation_date": "2020-09-17",
        "data_arc_in_days": 38,
        "observations_used": 28,
        "orbit_uncertainty": "6",
        "minimum_orbit_intersection": ".0581187",
        "jupiter_tisserand_invariant": "3.140",
        "epoch_osculation": "2459000.5",
        "eccentricity": ".5929297641706668",
        "semi_major_axis": "2.597648018018945",
        "inclination": "2.052394690971251",
        "ascending_node_longitude": "319.3248188965153",
        "orbital_period": "1529.216172859495",
        "perihelion_distance": "1.057425191296572",
        "perihelion_argument": "39.39892980436475",
        "aphelion_distance": "4.137870844741318",
        "perihelion_time": "2459111.738966252465",
        "mean_anomaly": "333.8127096995024",
        "mean_motion": ".2354147218616141",
        "equinox": "J2000",
        "orbit_class": {
            "orbit_class_type": "AMO",
            "orbit_class_description": "Near-Earth asteroid orbits similar to that of 1221 Amor",
            "orbit_class_range": "1.017 AU < q (perihelion) < 1.3 AU"
        }
    },
    "is_sentry_object": false
}